{
  "type": "FeatureCollection",
  "features": [
    {
      "type": "Feature",
      "properties": {
        "norad_id": 30144,
        "name": "FENGYUN 1C DEB",
        "group": "fengyun-1c-debris",
        "lat": 71.80290668651864,
        "lon": -50.82709692632206,
        "alt_km": 984.2706105825846,
        "timestamp": "2025-12-11T05:00:26.582884+00:00",
        "meta_object_name": "FENGYUN 1C DEB",
        "meta_object_id": "1999-025SZ",
        "meta_epoch": "2025-12-10T17:25:44.376384",
        "meta_mean_motion": 13.91813712,
        "meta_eccentricity": 0.01258086,
        "meta_inclination": 99.0101,
        "meta_ra_of_asc_node": 337.5635,
        "meta_arg_of_pericenter": 296.352,
        "meta_mean_anomaly": 240.9226,
        "meta_ephemeris_type": 0,
        "meta_classification_type": "U",
        "meta_norad_cat_id": 30144,
        "meta_element_set_no": 999,
        "meta_rev_at_epoch": 95812,
        "meta_bstar": 0.00088595312,
        "meta_mean_motion_dot": 1.159e-05,
        "meta_mean_motion_ddot": 0,
        "tle_line1": "1 30144U 99025SZ  25344.72620806  .00001159  00000+0  88595-3 0  9999",
        "tle_line2": "2 30144  99.0101 337.5635 0125808 296.3520 240.9226 13.91813712958123"
      },
      "geometry": {
        "type": "Point",
        "coordinates": [
          -50.82709692632206,
          71.80290668651864
        ]
      }
    },
    {
      "type": "Feature",
      "properties": {
        "norad_id": 30145,
        "name": "FENGYUN 1C DEB",
        "group": "fengyun-1c-debris",
        "lat": 24.674956567194066,
        "lon": 90.42835154522184,
        "alt_km": 885.2308820129665,
        "timestamp": "2025-12-11T05:00:26.582894+00:00",
        "meta_object_name": "FENGYUN 1C DEB",
        "meta_object_id": "1999-025TA",
        "meta_epoch": "2025-12-10T13:42:29.017152",
        "meta_mean_motion": 14.13988388,
        "meta_eccentricity": 0.0091881,
        "meta_inclination": 99.2697,
        "meta_ra_of_asc_node": 94.0705,
        "meta_arg_of_pericenter": 154.6909,
        "meta_mean_anomaly": 228.0834,
        "meta_ephemeris_type": 0,
        "meta_classification_type": "U",
        "meta_norad_cat_id": 30145,
        "meta_element_set_no": 999,
        "meta_rev_at_epoch": 96165,
        "meta_bstar": 0.0049438,
        "meta_mean_motion_dot": 9.743e-05,
        "meta_mean_motion_ddot": 0,
        "tle_line1": "1 30145U 99025TA  25344.57116918  .00009743  00000+0  49438-2 0  9996",
        "tle_line2": "2 30145  99.2697  94.0705 0091881 154.6909 228.0834 14.13988388961650"
      },
      "geometry": {
        "type": "Point",
        "coordinates": [
          90.42835154522184,
          24.674956567194066
        ]
      }
    },
    {
      "type": "Feature",
      "properties": {
        "norad_id": 30146,
        "name": "FENGYUN 1C DEB",
        "group": "fengyun-1c-debris",
        "lat": 34.52974454477566,
        "lon": -29.38623975367191,
        "alt_km": 813.4962747616937,
        "timestamp": "2025-12-11T05:00:26.582904+00:00",
        "meta_object_name": "FENGYUN 1C DEB",
        "meta_object_id": "1999-025TB",
        "meta_epoch": "2025-12-10T22:07:00.719040",
        "meta_mean_motion": 13.86595128,
        "meta_eccentricity": 0.01787845,
        "meta_inclination": 98.0199,
        "meta_ra_of_asc_node": 144.8008,
        "meta_arg_of_pericenter": 127.9126,
        "meta_mean_anomaly": 24.0994,
        "meta_ephemeris_type": 0,
        "meta_classification_type": "U",
        "meta_norad_cat_id": 30146,
        "meta_element_set_no": 999,
        "meta_rev_at_epoch": 95392,
        "meta_bstar": 0.00093840312,
        "meta_mean_motion_dot": 1.204e-05,
        "meta_mean_motion_ddot": 0,
        "tle_line1": "1 30146U 99025TB  25344.92153610  .00001204  00000+0  93840-3 0  9997",
        "tle_line2": "2 30146  98.0199 144.8008 0178784 127.9126  24.0994 13.86595128953924"
      },
      "geometry": {
        "type": "Point",
        "coordinates": [
          -29.38623975367191,
          34.52974454477566
        ]
      }
    },
    {
      "type": "Feature",
      "properties": {
        "norad_id": 30148,
        "name": "FENGYUN 1C DEB",
        "group": "fengyun-1c-debris",
        "lat": 21.57617639004495,
        "lon": -41.7072961882641,
        "alt_km": 860.5348571586073,
        "timestamp": "2025-12-11T05:00:26.582914+00:00",
        "meta_object_name": "FENGYUN 1C DEB",
        "meta_object_id": "1999-025TD",
        "meta_epoch": "2025-12-10T09:29:38.480928",
        "meta_mean_motion": 13.88479902,
        "meta_eccentricity": 0.01349167,
        "meta_inclination": 99.545,
        "meta_ra_of_asc_node": 133.6459,
        "meta_arg_of_pericenter": 202.8785,
        "meta_mean_anomaly": 214.2387,
        "meta_ephemeris_type": 0,
        "meta_classification_type": "U",
        "meta_norad_cat_id": 30148,
        "meta_element_set_no": 999,
        "meta_rev_at_epoch": 95484,
        "meta_bstar": 0.0013910746,
        "meta_mean_motion_dot": 1.749e-05,
        "meta_mean_motion_ddot": 0,
        "tle_line1": "1 30148U 99025TD  25344.39558427  .00001749  00000+0  13911-2 0  9999",
        "tle_line2": "2 30148  99.5450 133.6459 0134916 202.8785 214.2387 13.88479902954845"
      },
      "geometry": {
        "type": "Point",
        "coordinates": [
          -41.7072961882641,
          21.57617639004495
        ]
      }
    },
    {
      "type": "Feature",
      "properties": {
        "norad_id": 30150,
        "name": "FENGYUN 1C DEB",
        "group": "fengyun-1c-debris",
        "lat": -53.59888101909106,
        "lon": 133.66268225788625,
        "alt_km": 858.9622481203851,
        "timestamp": "2025-12-11T05:00:26.582924+00:00",
        "meta_object_name": "FENGYUN 1C DEB",
        "meta_object_id": "1999-025TF",
        "meta_epoch": "2025-12-10T08:44:30.215904",
        "meta_mean_motion": 13.86589473,
        "meta_eccentricity": 0.01465572,
        "meta_inclination": 98.9942,
        "meta_ra_of_asc_node": 120.4464,
        "meta_arg_of_pericenter": 342.596,
        "meta_mean_anomaly": 71.1064,
        "meta_ephemeris_type": 0,
        "meta_classification_type": "U",
        "meta_norad_cat_id": 30150,
        "meta_element_set_no": 999,
        "meta_rev_at_epoch": 95425,
        "meta_bstar": 0.00071159428,
        "meta_mean_motion_dot": 8.57e-06,
        "meta_mean_motion_ddot": 0,
        "tle_line1": "1 30150U 99025TF  25344.36423861  .00000857  00000+0  71159-3 0  9990",
        "tle_line2": "2 30150  98.9942 120.4464 0146557 342.5960  71.1064 13.86589473954258"
      },
      "geometry": {
        "type": "Point",
        "coordinates": [
          133.66268225788625,
          -53.59888101909106
        ]
      }
    },
    {
      "type": "Feature",
      "properties": {
        "norad_id": 30151,
        "name": "FENGYUN 1C DEB",
        "group": "fengyun-1c-debris",
        "lat": 59.13112257085846,
        "lon": -171.27552484823468,
        "alt_km": 1056.6996984413918,
        "timestamp": "2025-12-11T05:00:26.582934+00:00",
        "meta_object_name": "FENGYUN 1C DEB",
        "meta_object_id": "1999-025TG",
        "meta_epoch": "2025-12-10T18:54:23.950944",
        "meta_mean_motion": 13.84468708,
        "meta_eccentricity": 0.01632019,
        "meta_inclination": 99.0632,
        "meta_ra_of_asc_node": 352.8309,
        "meta_arg_of_pericenter": 284.0515,
        "meta_mean_anomaly": 259.581,
        "meta_ephemeris_type": 0,
        "meta_classification_type": "U",
        "meta_norad_cat_id": 30151,
        "meta_element_set_no": 999,
        "meta_rev_at_epoch": 95218,
        "meta_bstar": 0.00091678868,
        "meta_mean_motion_dot": 1.095e-05,
        "meta_mean_motion_ddot": 0,
        "tle_line1": "1 30151U 99025TG  25344.78777721  .00001095  00000+0  91679-3 0  9998",
        "tle_line2": "2 30151  99.0632 352.8309 0163201 284.0515 259.5810 13.84468708952183"
      },
      "geometry": {
        "type": "Point",
        "coordinates": [
          -171.27552484823468,
          59.13112257085846
        ]
      }
    },
    {
      "type": "Feature",
      "properties": {
        "norad_id": 30152,
        "name": "FENGYUN 1C DEB",
        "group": "fengyun-1c-debris",
        "lat": 2.597147455369601,
        "lon": 23.39344924600092,
        "alt_km": 901.1673585600911,
        "timestamp": "2025-12-11T05:00:26.582944+00:00",
        "meta_object_name": "FENGYUN 1C DEB",
        "meta_object_id": "1999-025TH",
        "meta_epoch": "2025-12-09T12:38:04.696800",
        "meta_mean_motion": 13.96651721,
        "meta_eccentricity": 0.0161586,
        "meta_inclination": 99.08,
        "meta_ra_of_asc_node": 201.3172,
        "meta_arg_of_pericenter": 94.2078,
        "meta_mean_anomaly": 267.7568,
        "meta_ephemeris_type": 0,
        "meta_classification_type": "U",
        "meta_norad_cat_id": 30152,
        "meta_element_set_no": 999,
        "meta_rev_at_epoch": 95333,
        "meta_bstar": 0.0033728,
        "meta_mean_motion_dot": 5.179e-05,
        "meta_mean_motion_ddot": 0,
        "tle_line1": "1 30152U 99025TH  25343.52644325  .00005179  00000+0  33728-2 0  9990",
        "tle_line2": "2 30152  99.0800 201.3172 0161586  94.2078 267.7568 13.96651721953337"
      },
      "geometry": {
        "type": "Point",
        "coordinates": [
          23.39344924600092,
          2.597147455369601
        ]
      }
    }
  ]
}